GLOBALSTAR M045         
1 25676U 99019A   25111.50960147 -.00000076  00000+0  15582-3 0  9993
2 25676  51.9945 106.8107 0000461  85.4764  65.3858 12.27061103186439
GLOBALSTAR M019         
1 25677U 99019B   25111.53629561 -.00000205  00000+0 -12009-2 0  9994
2 25677  51.9876 233.1147 0001553 180.2328 261.0198 12.13875949178264
GLOBALSTAR M044         
1 25678U 99019C   25111.60454376 -.00000075  00000+0  12356-3 0  9993
2 25678  51.9952 177.2089 0005972 289.3391 239.1904 11.90248868164582
GLOBALSTAR M049         
1 25771U 99031B   25111.63347938 -.00000075  00000+0 -35567-3 0  9999
2 25771  51.9896 322.2055 0001921 273.6722  86.3855 11.12113150111131
GLOBALSTAR M047         
1 25772U 99031C   25111.63249188 -.00000049  00000+0  56564-3 0  9998
2 25772  51.9854 324.5810 0016667 163.1922 196.9439 11.31927654464701
GLOBALSTAR M052         
1 25773U 99031D   25111.13009980 -.00000086  00000+0 -68911-3 0  9999
2 25773  51.9861  72.8165 0002597  73.3512  10.8368 11.15059096472140
